[{"OBJECT_NAME":"STARLINK-4339","OBJECT_ID":"2022-077M","EPOCH":"2026-03-09T23:16:39.638208","MEAN_MOTION":15.05648298,"ECCENTRICITY":0.00015574,"INCLINATION":97.6024,"RA_OF_ASC_NODE":251.5464,"ARG_OF_PERICENTER":84.1865,"MEAN_ANOMALY":275.9539,"EPHEMERIS_TYPE":0,"CLASSIFICATION_TYPE":"U","NORAD_CAT_ID":53054,"ELEMENT_SET_NO":999,"REV_AT_EPOCH":20102,"BSTAR":2.9849202e-5,"MEAN_MOTION_DOT":3.7e-6,"MEAN_MOTION_DDOT":0},{"OBJECT_NAME":"OBJECT D","OBJECT_ID":"2025-292D","EPOCH":"2026-03-09T21:45:32.907168","MEAN_MOTION":15.05344615,"ECCENTRICITY":0.00138692,"INCLINATION":97.6365,"RA_OF_ASC_NODE":145.5948,"ARG_OF_PERICENTER":343.7291,"MEAN_ANOMALY":16.3488,"EPHEMERIS_TYPE":0,"CLASSIFICATION_TYPE":"U","NORAD_CAT_ID":66996,"ELEMENT_SET_NO":999,"REV_AT_EPOCH":1350,"BSTAR":0.00030674408,"MEAN_MOTION_DOT":4.34e-5,"MEAN_MOTION_DDOT":0}]
